1 41866U 16071A   26156.11469631 -.00000079  00000-0  00000+0 0  9997
2 41866   0.3093  85.6480 0000632 318.4391 146.0983  1.00271137 34980
1 41866U 16071A   26156.25733192 -.00000079  00000-0  00000-0 0  9999
2 41866   0.3096  85.6430 0000628 318.5167 197.5148  1.00271121 34982
1 41866U 16071A   26156.68508152 -.00000078  00000-0  00000+0 0  9990
2 41866   0.3106  85.6419 0000615 319.3634 351.0798  1.00271085 34982
1 41866U 16071A   26156.89897171 -.00000078  00000-0  00000-0 0  9996
2 41866   0.3111  85.6368 0000596 318.7456  68.9135  1.00271058 34994
1 41866U 16071A   26156.97026441 -.00000078  00000-0  00000+0 0  9998
2 41866   0.3113  85.6377 0000589 318.5085  94.8851  1.00271046 34994
1 41866U 16071A   26157.11285251 -.00000078  00000-0  00000-0 0  9992
2 41866   0.3116  85.6375 0000579 318.2771 146.5885  1.00271023 34990
1 41866U 16071A   26157.48042897 -.00000078  00000-0  00000+0 0  9998
2 41866   0.3125  85.6353 0000567 318.9931 278.5637  1.00270982 34992
1 41866U 16071A   26157.54058994 -.00000078  00000-0  00000-0 0  9991
2 41866   0.3126  85.6358 0000565 319.1070 300.1665  1.00270975 34998
1 41866U 16071A   26157.82569154 -.00000077  00000-0  00000+0 0  9995
2 41866   0.3133  85.6293 0000546 318.6021  43.5946  1.00270937 35004
1 41866U 16071A   26157.89710603 -.00000077  00000-0  00000-0 0  9990
2 41866   0.3135  85.6289 0000540 318.1588  69.8176  1.00270926 35002
1 41866U 16071A   26158.11099999 -.00000077  00000-0  00000+0 0  9993
2 41866   0.3140  85.6290 0000524 317.1048 148.0835  1.00270889 35002
1 41866U 16071A   26158.19003021 -.00000077  00000-0  00000-0 0  9993
2 41866   0.3142  85.6275 0000519 316.9738 176.7445  1.00270876 35005
1 41866U 16071A   26158.46738235 -.00000076  00000-0  00000+0 0  9993
2 41866   0.3149  85.6261 0000508 317.7505 276.0886  1.00270840 35000
1 41866U 16071A   26158.68138674 -.00000076  00000-0  00000+0 0  9998
2 41866   0.3154  85.6251 0000497 318.0468 353.0452  1.00270807 35002
1 41866U 16071A   26159.10913412 -.00000075  00000-0  00000+0 0  9996
2 41866   0.3165  85.6192 0000466 315.5886 149.9183  1.00270738 35017
1 41866U 16071A   26159.25171122 -.00000075  00000-0  00000-0 0  9997
2 41866   0.3168  85.6172 0000458 315.2230 201.7536  1.00270713 35011
1 41866U 16071A   26159.46554259 -.00000075  00000-0  00000+0 0  9995
2 41866   0.3173  85.6157 0000446 315.9570 278.2106  1.00270684 35010
1 41866U 16071A   26159.53669697 -.00000075  00000-0  00000-0 0  9997
2 41866   0.3175  85.6155 0000442 316.2394 303.6139  1.00270672 35010
1 41866U 16071A   26159.67950005 -.00000075  00000-0  00000+0 0  9997
2 41866   0.3179  85.6150 0000432 316.4104 354.9928  1.00270645 35014
1 41866U 16071A   26160.10723146 -.00000074  00000-0  00000+0 0  9990
2 41866   0.3190  85.6070 0000412 313.1860 152.6282  1.00270580 35024
1 41866U 16071A   26160.23329439 -.00000074  00000-0  00000-0 0  9992
2 41866   0.3193  85.6068 0000405 312.6460 198.6748  1.00270559 35029
1 41866U 16071A   26160.46365454 -.00000074  00000-0  00000-0 0  9994
2 41866   0.3199  85.6009 0000390 312.7885 281.6941  1.00270525 35026
1 41866U 16071A   26160.46365454 -.00000074  00000-0  00000+0 0  9993
2 41866   0.3199  85.6009 0000390 312.7885 281.6940  1.00270525 35025
1 41866U 16071A   26160.67756544 -.00000074  00000-0  00000-0 0  9991
2 41866   0.3205  85.6006 0000373 313.1680 358.5327  1.00270485 35027
1 41866U 16071A   26161.14280752 -.00000073  00000-0  00000+0 0  9995
2 41866   0.3218  85.5909 0000358 309.5174 170.1366  1.00270419 35031
1 41866U 16071A   26161.24786823 -.00000073  00000-0  00000+0 0  9996
2 41866   0.3220  85.5919 0000352 309.1594 208.4185  1.00270404 35039
1 41866U 16071A   26161.24786824 -.00000073  00000-0  00000-0 0  9998
2 41866   0.3220  85.5919 0000352 309.1594 208.4185  1.00270404 35039
1 41866U 16071A   26161.53304222 -.00000073  00000-0  00000-0 0  9998
2 41866   0.3228  85.5820 0000329 309.1216 311.4089  1.00270364 35036
